CHECKMATE 4             
1 56164U 23050C   26202.03516658  .00000044  00000+0  28872-4 0  9996
2 56164  80.9999  39.3760 0004835 239.4402 120.6277 13.84818691166827
CHECKMATE 6             
1 56165U 23050D   26202.04004883  .00000028  00000+0  14198-4 0  9998
2 56165  81.0030  39.2949 0011342 214.8928 145.1487 13.86920600166792
CHECKMATE 7             
1 56166U 23050E   26202.07399969  .00000016  00000+0  37598-5 0  9991
2 56166  80.9988  38.5003 0014284 217.5473 142.4688 13.87729364166810
CHECKMATE 2             
1 56167U 23050F   26202.01019546  .00000061  00000+0  44243-4 0  9990
2 56167  81.0031  39.2540 0006276 219.1447 140.9256 13.85166516166790
CHECKMATE 1             
1 56168U 23050G   26202.07036415  .00000059  00000+0  42292-4 0  9990
2 56168  81.0028  39.4701 0010329 254.9222 105.0791 13.84956145166789
CHECKMATE 3             
1 56169U 23050H   26202.25946605  .00000033  00000+0  19039-4 0  9997
2 56169  81.0013  38.7195 0006260 216.7244 143.3484 13.85151972166838
BB 2                    
1 56170U 23050J   26202.26040429  .00000234  00000+0  90502-4 0  9996
2 56170  81.0007  43.2694 0008503 187.9728 172.1318 14.27476281166540
BB 1                    
1 56171U 23050K   26187.88071034  .00000205  00000+0  14962-3 0  9996
2 56171  81.0025  61.6257 0014576 250.1001 109.8589 13.92825829164276
INTELSAT 40E (IS-40E)   
1 56174U 23052A   26202.24192053  .00000000  00000+0  00000+0 0  9991
2 56174   0.0212  74.3885 0002583  67.5549 153.1613  1.00269503 12165
IMECE                   
1 56178U 23054A   26202.28444609  .00000172  00000+0  40248-4 0  9991
2 56178  98.1191 106.7191 0010942  66.1154 294.1195 14.65867394175403
GHGSAT-C8               
1 56186U 23054J   26202.23629079  .00012625  00000+0  19755-3 0  9995
2 56186  97.2944 112.0580 0002021 335.6682  24.4476 15.53890988183722
HAWK-7A                 
1 56191U 23054P   26202.10876268  .00003944  00000+0  14853-3 0  9999
2 56191  97.2652  88.5833 0000988 289.7261  70.3872 15.27671200182201
ION SCV-010             
1 56192U 23054Q   26202.11931548  .00003429  00000+0  13399-3 0  9996
2 56192  97.3733  91.1854 0014627  85.6987 274.5922 15.26457495181377
HAWK-7B                 
1 56193U 23054R   26202.10869537  .00003867  00000+0  14565-3 0  9996
2 56193  97.2678  86.8591 0000657   1.1831 358.9410 15.27672935182204
HAWK-7C                 
1 56200U 23054Y   26202.04306556  .00003947  00000+0  14862-3 0  9994
2 56200  97.2657  87.5533 0000363 305.0982  55.0223 15.27671668182198
NUSAT-39 (TIKVAH ALPER) 
1 56201U 23054Z   26202.25197387  .00021917  00000+0  41728-3 0  9996
2 56201  97.3076 112.3543 0001469 271.9821  88.1261 15.48225963183729
NUSAT-38 (MARIA AGNESI) 
1 56202U 23054AA  26202.23430124  .00026839  00000+0  45519-3 0  9994
2 56202  97.3018 113.0960 0008013 299.3887  60.6565 15.51447982183784
NUSAT-37 (JOAN CLARKE)  
1 56203U 23054AB  26202.25961706  .00039696  00000+0  49037-3 0  9996
2 56203  97.2585 110.0433 0008464 127.7687 232.4339 15.60004023183959
GHGSAT-C6               
1 56204U 23054AC  26202.26700485  .00011547  00000+0  18099-3 0  9992
2 56204  97.3005 112.7974 0003154 268.9735  91.1157 15.53865748183746
GHGSAT-C7               
1 56209U 23054AH  26202.27863086  .00010286  00000+0  18171-3 0  9995
2 56209  97.2957 111.0919 0004813 273.2197  86.8505 15.50534732183674
AAC-HSI-SAT1            
1 56225U 23054AZ  26202.23269291  .00001204  00000+0  72443-4 0  9990
2 56225  97.3643  77.4269 0010266  17.1520 343.0057 15.12637722180513
FENGYUN 3G              
1 56232U 23055A   26202.26462159  .00018557  00000+0  28783-3 0  9996
2 56232  49.9913 170.2416 0006859  84.4415 275.7334 15.53971589185301
STARLINK-30107          
1 56287U 23056B   26202.17680187  .00000228  00000+0  17788-4 0  9990
2 56287  43.0012 157.2882 0000911 273.3993  86.6755 15.27579106180717
STARLINK-30106          
1 56288U 23056C   26201.96933037  .00000441  00000+0  25552-4 0  9997
2 56288  43.0022 176.2142 0000836 263.8768  96.1989 15.27575877180423
STARLINK-30095          
1 56289U 23056D   26202.25320776  .00000533  00000+0  28895-4 0  9996
2 56289  43.0021 148.7393 0000983 283.2460  76.8282 15.27578792180760
STARLINK-30103          
1 56290U 23056E   26202.23473222  .00001394  00000+0  60196-4 0  9997
2 56290  43.0025 174.7571 0001121 271.4681  88.6042 15.27571735180464
STARLINK-30113          
1 56291U 23056F   26201.63854023 -.00000129  00000+0  48388-5 0  9999
2 56291  43.0008 178.0204 0001051 268.2344  91.8387 15.27576768180377
STARLINK-30098          
1 56292U 23056G   26201.65010161  .00000379  00000+0  23303-4 0  9994
2 56292  43.0037 178.0979 0001090 282.0262  78.0467 15.27579319180376
STARLINK-30049          
1 56294U 23056J   26201.99116256 -.00000616  00000+0 -12866-4 0  9993
2 56294  43.0020 176.2951 0001393 276.2482  83.8211 15.27578709180424
STARLINK-30083          
1 56295U 23056K   26201.97895627  .00000570  00000+0  30237-4 0  9997
2 56295  43.0023 150.9674 0001129 266.7927  93.2796 15.27579933180708
