OBJECT_NAME,OBJECT_ID,EPOCH,MEAN_MOTION,ECCENTRICITY,INCLINATION,RA_OF_ASC_NODE,ARG_OF_PERICENTER,MEAN_ANOMALY,EPHEMERIS_TYPE,CLASSIFICATION_TYPE,NORAD_CAT_ID,ELEMENT_SET_NO,REV_AT_EPOCH,BSTAR,MEAN_MOTION_DOT,MEAN_MOTION_DDOT
CHECKMATE 4,2023-050C,2026-07-21T00:50:38.392512,13.84818691,.00048354,80.9999,39.3760,239.4402,120.6277,0,U,56164,999,16682,.28871911E-4,.44E-6,0
CHECKMATE 6,2023-050D,2026-07-21T00:57:40.218912,13.86920600,.00113424,81.0030,39.2949,214.8928,145.1487,0,U,56165,999,16679,.141978E-4,.28E-6,0
CHECKMATE 7,2023-050E,2026-07-21T01:46:33.573216,13.87729364,.00142842,80.9988,38.5003,217.5473,142.4688,0,U,56166,999,16681,.3759814E-5,.16E-6,0
CHECKMATE 2,2023-050F,2026-07-21T00:14:40.887744,13.85166516,.00062763,81.0031,39.2540,219.1447,140.9256,0,U,56167,999,16679,.44243171E-4,.61E-6,0
CHECKMATE 1,2023-050G,2026-07-21T01:41:19.462560,13.84956145,.00103296,81.0028,39.4701,254.9222,105.0791,0,U,56168,999,16678,.42292373E-4,.59E-6,0
CHECKMATE 3,2023-050H,2026-07-21T06:13:37.866720,13.85151972,.000626,81.0013,38.7195,216.7244,143.3484,0,U,56169,999,16683,.19038654E-4,.33E-6,0
BB 2,2023-050J,2026-07-21T06:14:58.930656,14.27476281,.00085034,81.0007,43.2694,187.9728,172.1318,0,U,56170,999,16654,.90501924E-4,.234E-5,0
BB 1,2023-050K,2026-07-06T21:08:13.373376,13.92825829,.00145762,81.0025,61.6257,250.1001,109.8589,0,U,56171,999,16427,.1496219E-3,.205E-5,0
INTELSAT 40E (IS-40E),2023-052A,2026-07-21T05:48:21.933792,1.00269503,.00025833,0.0212,74.3885,67.5549,153.1613,0,U,56174,999,1216,0,0,0
IMECE,2023-054A,2026-07-21T06:49:36.142176,14.65867394,.00109422,98.1191,106.7191,66.1154,294.1195,0,U,56178,999,17540,.40248143E-4,.172E-5,0
GHGSAT-C8,2023-054J,2026-07-21T05:40:15.524256,15.53890988,.00020213,97.2944,112.0580,335.6682,24.4476,0,U,56186,999,18372,.19754864E-3,.12625E-3,0
HAWK-7A,2023-054P,2026-07-21T02:36:37.095552,15.27671200,.00009888,97.2652,88.5833,289.7261,70.3872,0,U,56191,999,18220,.1485272E-3,.3944E-4,0
ION SCV-010,2023-054Q,2026-07-21T02:51:48.857472,15.26457495,.00146274,97.3733,91.1854,85.6987,274.5922,0,U,56192,999,18137,.13399294E-3,.3429E-4,0
HAWK-7B,2023-054R,2026-07-21T02:36:31.279968,15.27672935,.00006578,97.2678,86.8591,1.1831,358.9410,0,U,56193,999,18220,.14565309E-3,.3867E-4,0
HAWK-7C,2023-054Y,2026-07-21T01:02:00.864384,15.27671668,.00003639,97.2657,87.5533,305.0982,55.0223,0,U,56200,999,18219,.1486204E-3,.3947E-4,0
NUSAT-39 (TIKVAH ALPER),2023-054Z,2026-07-21T06:02:50.542368,15.48225963,.00014696,97.3076,112.3543,271.9821,88.1261,0,U,56201,999,18372,.41728447E-3,.21917E-3,0
NUSAT-38 (MARIA AGNESI),2023-054AA,2026-07-21T05:37:23.627136,15.51447982,.00080133,97.3018,113.0960,299.3887,60.6565,0,U,56202,999,18378,.45519199E-3,.26839E-3,0
NUSAT-37 (JOAN CLARKE),2023-054AB,2026-07-21T06:13:50.913984,15.60004023,.00084645,97.2585,110.0433,127.7687,232.4339,0,U,56203,999,18395,.49036586E-3,.39696E-3,0
GHGSAT-C6,2023-054AC,2026-07-21T06:24:29.219040,15.53865748,.00031544,97.3005,112.7974,268.9735,91.1157,0,U,56204,999,18374,.18098556E-3,.11547E-3,0
GHGSAT-C7,2023-054AH,2026-07-21T06:41:13.706304,15.50534732,.00048136,97.2957,111.0919,273.2197,86.8505,0,U,56209,999,18367,.18171208E-3,.10286E-3,0
AAC-HSI-SAT1,2023-054AZ,2026-07-21T05:35:04.667424,15.12637722,.00102662,97.3643,77.4269,17.1520,343.0057,0,U,56225,999,18051,.72442503E-4,.1204E-4,0
FENGYUN 3G,2023-055A,2026-07-21T06:21:03.305376,15.53971589,.00068592,49.9913,170.2416,84.4415,275.7334,0,U,56232,999,18530,.28783123E-3,.18557E-3,0
STARLINK-30107,2023-056B,2026-07-21T04:14:35.681568,15.27579106,.00009112,43.0012,157.2882,273.3993,86.6755,0,U,56287,999,18071,.17788253E-4,.228E-5,0
STARLINK-30106,2023-056C,2026-07-20T23:15:50.143968,15.27575877,.00008368,43.0022,176.2142,263.8768,96.1989,0,U,56288,999,18042,.25552402E-4,.441E-5,0
STARLINK-30095,2023-056D,2026-07-21T06:04:37.150464,15.27578792,.00009837,43.0021,148.7393,283.2460,76.8282,0,U,56289,999,18076,.28894861E-4,.533E-5,0
STARLINK-30103,2023-056E,2026-07-21T05:38:00.863808,15.27571735,.00011214,43.0025,174.7571,271.4681,88.6042,0,U,56290,999,18046,.60195629E-4,.1394E-4,0
STARLINK-30113,2023-056F,2026-07-20T15:19:29.875872,15.27576768,.00010513,43.0008,178.0204,268.2344,91.8387,0,U,56291,999,18037,.4838796E-5,-.129E-5,0
STARLINK-30098,2023-056G,2026-07-20T15:36:08.779104,15.27579319,.00010904,43.0037,178.0979,282.0262,78.0467,0,U,56292,999,18037,.23302681E-4,.379E-5,0
STARLINK-30049,2023-056J,2026-07-20T23:47:16.445184,15.27578709,.00013935,43.0020,176.2951,276.2482,83.8211,0,U,56294,999,18042,-.12866389E-4,-.616E-5,0
STARLINK-30083,2023-056K,2026-07-20T23:29:41.821728,15.27579933,.00011296,43.0023,150.9674,266.7927,93.2796,0,U,56295,999,18070,.30237233E-4,.57E-5,0
